OBJECT_NAME,OBJECT_ID,EPOCH,MEAN_MOTION,ECCENTRICITY,INCLINATION,RA_OF_ASC_NODE,ARG_OF_PERICENTER,MEAN_ANOMALY,EPHEMERIS_TYPE,CLASSIFICATION_TYPE,NORAD_CAT_ID,ELEMENT_SET_NO,REV_AT_EPOCH,BSTAR,MEAN_MOTION_DOT,MEAN_MOTION_DDOT
INTELSAT 906 (IS-906),2002-041A,2026-06-14T04:52:21.418752,1.00272354,.0004639,5.7955,72.9589,3.9186,322.8531,0,U,27513,999,8699,0,.17E-6,0
NIMIQ 2,2002-062A,2026-06-13T12:08:36.118176,1.00271655,.00054082,9.4375,56.9377,21.2943,256.5437,0,U,27632,999,4414,0,-.66E-6,0
USA 167,2003-008A,2026-06-13T07:06:38.539296,1.00273034,.00038434,10.9535,43.4431,310.9228,252.2023,0,U,27691,999,673,0,.6E-7,0
USA 169 (MILSTAR-2 4),2003-012A,2026-06-13T22:25:52.813056,1.00273430,.0100556,12.3444,29.8681,9.0586,351.9142,0,U,27711,999,3292,0,-.239E-5,0
ASIASAT 4,2003-014A,2026-06-13T14:59:38.885568,1.00271157,.00029857,4.6956,75.7920,11.2570,187.3452,0,U,27718,999,4526,0,-.215E-5,0
HELLAS-SAT 2,2003-020A,2026-06-13T23:22:17.048352,1.00271030,.00023741,7.3467,67.9221,19.5581,155.3544,0,U,27811,999,4281,0,-.81E-6,0
THURAYA-2,2003-026A,2026-06-14T04:45:39.458304,1.00272813,.00031009,8.8360,31.9917,9.7279,336.1940,0,U,27825,999,8431,0,.126E-5,0
OPTUS C1,2003-028B,2026-06-12T23:11:51.775008,1.00272844,.00054742,6.8788,69.4599,9.4427,326.0852,0,U,27831,999,5301,0,-.143E-5,0
USA 170,2003-040A,2026-06-13T21:54:11.772000,1.00267884,.0001881,10.4940,47.9796,61.5766,145.5156,0,U,27875,999,3296,0,.126E-5,0
GALAXY 13 (HORIZONS-1),2003-044A,2026-06-14T03:50:23.517888,1.00269661,.0002299,1.4119,83.9032,348.3898,97.7665,0,U,27954,999,4654,0,.14E-5,0
YAMAL 202,2003-053A,2026-06-14T07:48:01.598400,1.00271496,.00033613,6.3359,70.9726,9.9223,102.3211,0,U,28089,999,8267,0,-.77E-6,0
UFO 11 (USA 174),2003-057A,2026-06-14T03:02:21.600096,1.00274485,.00026411,8.9324,33.8445,52.1453,297.6344,0,U,28117,999,8241,0,-.104E-5,0
USA 176 (DSP 22),2004-004A,2026-06-11T23:21:41.975136,1.00406369,.0001239,12.0550,26.1076,290.9902,243.8917,0,U,28158,999,3288,0,-.286E-5,0
ABS-4 (MOBISAT-1),2004-007A,2026-06-14T04:57:21.688128,1.00272806,.00051891,6.0345,72.0444,9.1837,316.5810,0,U,28184,999,5230,0,.42E-6,0
INTELSAT 10-02,2004-022A,2026-06-14T04:32:48.189696,1.00267355,.00002644,0.0133,328.7641,276.6580,84.2589,0,U,28358,999,8052,0,-.3E-7,0
ANIK F2,2004-027A,2026-06-14T06:09:51.948000,1.00271301,.00039994,3.2795,79.4860,6.8253,157.5857,0,U,28378,999,4123,0,-.44E-6,0
AMC-15,2004-041A,2026-06-14T04:03:06.251904,1.00271459,.00021001,0.0188,328.2552,126.0577,123.8970,0,U,28446,999,7927,0,-.8E-6,0
NSS-10,2005-003A,2026-06-14T02:39:46.059264,1.00270897,.00026568,6.4417,70.4904,2.3381,192.0841,0,U,28526,999,5312,0,-.248E-5,0
INMARSAT 4-F1,2005-009A,2026-06-13T20:50:34.538784,1.00271716,.0002455,5.1634,42.7513,41.8715,308.3195,0,U,28628,999,7763,0,.38E-6,0
DIRECTV 8,2005-019A,2026-06-14T03:36:38.532672,1.00270909,.00027506,0.0271,70.1038,16.8104,110.6454,0,U,28659,999,7704,0,.1E-6,0
GALAXY 28 (G-28),2005-022A,2026-06-14T04:25:18.907968,1.00271210,.00028801,3.2912,78.9706,2.7391,220.0069,0,U,28702,999,5194,0,-.194E-5,0
THAICOM 4,2005-028A,2026-06-14T05:07:14.888064,1.00270936,.00015945,0.2379,85.9516,346.7806,26.0999,0,U,28786,999,5222,0,-.354E-5,0
ANIK F1R,2005-036A,2026-06-14T04:02:36.298752,1.00270637,.00040197,4.3049,76.6155,359.3666,139.8604,0,U,28868,999,4642,0,-.7E-6,0
SYRACUSE 3A,2005-041B,2026-06-13T22:20:24.219168,1.00273648,.0003011,4.6348,75.8788,348.4087,219.7035,0,U,28885,999,7571,0,.135E-5,0
INMARSAT 4-F2,2005-044A,2026-06-13T13:50:01.557024,1.00271325,.0002811,5.0897,43.7030,36.3582,172.8276,0,U,28899,999,7548,0,-.254E-5,0
METEOSAT-9 (MSG-2),2005-049B,2026-06-13T20:12:48.957984,1.00270562,.00015434,9.3538,54.2002,346.3460,210.4526,0,U,28912,999,696,0,.126E-5,0
EUTELSAT 174A,2005-052A,2026-06-14T01:57:22.653216,1.00270456,.0006104,4.2116,76.5647,6.2975,22.8278,0,U,28924,999,5230,0,.14E-6,0
ECHOSTAR 10,2006-003A,2026-06-14T04:01:43.883328,1.00270518,.00014631,0.0169,346.2950,70.7934,155.6246,0,U,28935,999,7443,0,-.46E-6,0
SPAINSAT,2006-007A,2026-06-13T08:34:13.032192,1.00270601,.0004639,0.5532,86.5898,354.9009,278.5681,0,U,28945,999,7418,0,-.205E-5,0
JCSAT-5A,2006-010A,2026-06-14T05:10:44.552352,1.00270318,.00018631,1.1017,84.2483,17.6285,10.3687,0,U,29045,999,7374,0,-.32E-5,0
ASTRA 1KR,2006-012A,2026-06-14T04:38:32.639712,1.00270065,.00032646,0.4660,83.1958,354.7485,273.1658,0,U,29055,999,4566,0,.127E-5,0
GALAXY 16 (G-16),2006-023A,2026-06-14T07:07:24.194784,1.00270600,.00024366,0.0485,142.3222,306.5116,181.6116,0,U,29236,999,7294,0,-.118E-5,0
