INTELSAT 906 (IS-906)   
1 27513U 02041A   26165.20302568  .00000017  00000+0  00000+0 0  9997
2 27513   5.7955  72.9589 0004639   3.9186 322.8531  1.00272354 86990
NIMIQ 2                 
1 27632U 02062A   26164.50597359 -.00000066  00000+0  00000+0 0  9993
2 27632   9.4375  56.9377 0005408  21.2943 256.5437  1.00271655 44147
USA 167                 
1 27691U 03008A   26164.29627939  .00000006  00000+0  00000+0 0  9996
2 27691  10.9535  43.4431 0003843 310.9228 252.2023  1.00273034  6734
USA 169 (MILSTAR-2 4)   
1 27711U 03012A   26164.93463904 -.00000239  00000+0  00000+0 0  9994
2 27711  12.3444  29.8681 0100556   9.0586 351.9142  1.00273430 32928
ASIASAT 4               
1 27718U 03014A   26164.62475562 -.00000215  00000+0  00000+0 0  9996
2 27718   4.6956  75.7920 0002985  11.2570 187.3452  1.00271157 45268
HELLAS-SAT 2            
1 27811U 03020A   26164.97380843 -.00000081  00000+0  00000+0 0  9993
2 27811   7.3467  67.9221 0002374  19.5581 155.3544  1.00271030 42816
THURAYA-2               
1 27825U 03026A   26165.19837336  .00000126  00000+0  00000+0 0  9992
2 27825   8.8360  31.9917 0003100   9.7279 336.1940  1.00272813 84315
OPTUS C1                
1 27831U 03028B   26163.96657147 -.00000143  00000+0  00000+0 0  9994
2 27831   6.8788  69.4599 0005474   9.4427 326.0852  1.00272844 53011
USA 170                 
1 27875U 03040A   26164.91263625  .00000126  00000+0  00000+0 0  9996
2 27875  10.4940  47.9796 0001881  61.5766 145.5156  1.00267884 32963
GALAXY 13 (HORIZONS-1)  
1 27954U 03044A   26165.15999442  .00000140  00000+0  00000+0 0  9994
2 27954   1.4119  83.9032 0002299 348.3898  97.7665  1.00269661 46545
YAMAL 202               
1 28089U 03053A   26165.32501850 -.00000077  00000+0  00000+0 0  9995
2 28089   6.3359  70.9726 0003361   9.9223 102.3211  1.00271496 82677
UFO 11 (USA 174)        
1 28117U 03057A   26165.12663889 -.00000104  00000+0  00000+0 0  9991
2 28117   8.9324  33.8445 0002641  52.1453 297.6344  1.00274485 82418
USA 176 (DSP 22)        
1 28158U 04004A   26162.97340249 -.00000286  00000+0  00000+0 0  9992
2 28158  12.0550  26.1076 0001239 290.9902 243.8917  1.00406369 32881
ABS-4 (MOBISAT-1)       
1 28184U 04007A   26165.20650102  .00000042  00000+0  00000+0 0  9994
2 28184   6.0345  72.0444 0005189   9.1837 316.5810  1.00272806 52305
INTELSAT 10-02          
1 28358U 04022A   26165.18944664 -.00000003  00000+0  00000+0 0  9998
2 28358   0.0133 328.7641 0000264 276.6580  84.2589  1.00267355 80522
ANIK F2                 
1 28378U 04027A   26165.25685125 -.00000044  00000+0  00000+0 0  9992
2 28378   3.2795  79.4860 0003999   6.8253 157.5857  1.00271301 41237
AMC-15                  
1 28446U 04041A   26165.16882236 -.00000080  00000+0  00000+0 0  9996
2 28446   0.0188 328.2552 0002100 126.0577 123.8970  1.00271459 79275
NSS-10                  
1 28526U 05003A   26165.11094976 -.00000248  00000+0  00000+0 0  9991
2 28526   6.4417  70.4904 0002656   2.3381 192.0841  1.00270897 53127
INMARSAT 4-F1           
1 28628U 05009A   26164.86845531  .00000038  00000+0  00000+0 0  9998
2 28628   5.1634  42.7513 0002455  41.8715 308.3195  1.00271716 77638
DIRECTV 8               
1 28659U 05019A   26165.15044598  .00000010  00000+0  00000+0 0  9990
2 28659   0.0271  70.1038 0002750  16.8104 110.6454  1.00270909 77042
GALAXY 28 (G-28)        
1 28702U 05022A   26165.18424662 -.00000194  00000+0  00000+0 0  9994
2 28702   3.2912  78.9706 0002880   2.7391 220.0069  1.00271210 51947
THAICOM 4               
1 28786U 05028A   26165.21336676 -.00000354  00000+0  00000+0 0  9991
2 28786   0.2379  85.9516 0001594 346.7806  26.0999  1.00270936 52225
ANIK F1R                
1 28868U 05036A   26165.16847568 -.00000070  00000+0  00000+0 0  9997
2 28868   4.3049  76.6155 0004019 359.3666 139.8604  1.00270637 46429
SYRACUSE 3A             
1 28885U 05041B   26164.93083587  .00000135  00000+0  00000+0 0  9990
2 28885   4.6348  75.8788 0003011 348.4087 219.7035  1.00273648 75718
INMARSAT 4-F2           
1 28899U 05044A   26164.57640691 -.00000254  00000+0  00000+0 0  9996
2 28899   5.0897  43.7030 0002811  36.3582 172.8276  1.00271325 75481
METEOSAT-9 (MSG-2)      
1 28912U 05049B   26164.84223331  .00000126  00000+0  00000+0 0  9992
2 28912   9.3538  54.2002 0001543 346.3460 210.4526  1.00270562  6968
EUTELSAT 174A           
1 28924U 05052A   26165.08151219  .00000014  00000+0  00000+0 0  9997
2 28924   4.2116  76.5647 0006104   6.2975  22.8278  1.00270456 52300
ECHOSTAR 10             
1 28935U 06003A   26165.16786902 -.00000046  00000+0  00000+0 0  9994
2 28935   0.0169 346.2950 0001463  70.7934 155.6246  1.00270518 74439
SPAINSAT                
1 28945U 06007A   26164.35709528 -.00000205  00000+0  00000+0 0  9995
2 28945   0.5532  86.5898 0004639 354.9009 278.5681  1.00270601 74185
JCSAT-5A                
1 29045U 06010A   26165.21579343 -.00000320  00000+0  00000+0 0  9995
2 29045   1.1017  84.2483 0001863  17.6285  10.3687  1.00270318 73746
ASTRA 1KR               
1 29055U 06012A   26165.19343333  .00000127  00000+0  00000+0 0  9997
2 29055   0.4660  83.1958 0003264 354.7485 273.1658  1.00270065 45668
GALAXY 16 (G-16)        
1 29236U 06023A   26165.29680781 -.00000118  00000+0  00000+0 0  9993
2 29236   0.0485 142.3222 0002436 306.5116 181.6116  1.00270600 72946
